[
  {
    "OBJECT_NAME": "STARLINK-34768",
    "OBJECT_ID": "25167T",
    "EPOCH": "2025-11-11T02:38:30.138720",
    "MEAN_MOTION": 15.30215297,
    "ECCENTRICITY": 9.55e-05,
    "INCLINATION": 53.1593,
    "RA_OF_ASC_NODE": 217.5299,
    "ARG_OF_PERICENTER": 107.1336,
    "MEAN_ANOMALY": 252.9769,
    "EPHEMERIS_TYPE": 0,
    "CLASSIFICATION_TYPE": "U",
    "NORAD_CAT_ID": 65095,
    "ELEMENT_SET_NO": 999,
    "REV_AT_EPOCH": 1532,
    "BSTAR": 0.0007618200000000001,
    "MEAN_MOTION_DOT": 0.00022282,
    "MEAN_MOTION_DDOT": 0.0,
    "TLE_LINE1": "1 65095U 25167T   25315.11007105  .00022282  00000+0  76182-3 0  9999",
    "TLE_LINE2": "2 65095  53.1593 217.5299 0000955 107.1336 252.9769 15.30215297 15324",
    "COMMENT": "Grouped by shell and plane from TLE"
  },
  {
    "OBJECT_NAME": "STARLINK-34759",
    "OBJECT_ID": "25167U",
    "EPOCH": "2025-11-11T05:42:02.822688",
    "MEAN_MOTION": 15.30230199,
    "ECCENTRICITY": 0.0001199,
    "INCLINATION": 53.1576,
    "RA_OF_ASC_NODE": 216.904,
    "ARG_OF_PERICENTER": 97.8416,
    "MEAN_ANOMALY": 262.2721,
    "EPHEMERIS_TYPE": 0,
    "CLASSIFICATION_TYPE": "U",
    "NORAD_CAT_ID": 65096,
    "ELEMENT_SET_NO": 999,
    "REV_AT_EPOCH": 1534,
    "BSTAR": 0.00096563,
    "MEAN_MOTION_DOT": 0.00028376,
    "MEAN_MOTION_DDOT": 0.0,
    "TLE_LINE1": "1 65096U 25167U   25315.23753267  .00028376  00000+0  96563-3 0  9995",
    "TLE_LINE2": "2 65096  53.1576 216.9040 0001199  97.8416 262.2721 15.30230199 15340",
    "COMMENT": "Grouped by shell and plane from TLE"
  },
  {
    "OBJECT_NAME": "STARLINK-34741",
    "OBJECT_ID": "25167V",
    "EPOCH": "2025-11-11T00:55:20.203392",
    "MEAN_MOTION": 15.30194293,
    "ECCENTRICITY": 0.000151,
    "INCLINATION": 53.1579,
    "RA_OF_ASC_NODE": 217.7943,
    "ARG_OF_PERICENTER": 85.2649,
    "MEAN_ANOMALY": 274.8524,
    "EPHEMERIS_TYPE": 0,
    "CLASSIFICATION_TYPE": "U",
    "NORAD_CAT_ID": 65097,
    "ELEMENT_SET_NO": 999,
    "REV_AT_EPOCH": 1531,
    "BSTAR": 0.00076429,
    "MEAN_MOTION_DOT": 0.00022341,
    "MEAN_MOTION_DDOT": 0.0,
    "TLE_LINE1": "1 65097U 25167V   25315.03842828  .00022341  00000+0  76429-3 0  9991",
    "TLE_LINE2": "2 65097  53.1579 217.7943 0001510  85.2649 274.8524 15.30194293 15312",
    "COMMENT": "Grouped by shell and plane from TLE"
  },
  {
    "OBJECT_NAME": "STARLINK-34764",
    "OBJECT_ID": "25167W",
    "EPOCH": "2025-11-11T00:50:46.645440",
    "MEAN_MOTION": 15.30200413,
    "ECCENTRICITY": 0.0001394,
    "INCLINATION": 53.1582,
    "RA_OF_ASC_NODE": 217.7727,
    "ARG_OF_PERICENTER": 94.1749,
    "MEAN_ANOMALY": 265.9411,
    "EPHEMERIS_TYPE": 0,
    "CLASSIFICATION_TYPE": "U",
    "NORAD_CAT_ID": 65098,
    "ELEMENT_SET_NO": 999,
    "REV_AT_EPOCH": 1531,
    "BSTAR": 0.0018376999999999998,
    "MEAN_MOTION_DOT": 0.0005447,
    "MEAN_MOTION_DDOT": 0.0,
    "TLE_LINE1": "1 65098U 25167W   25315.03526210  .00054470  00000+0  18377-2 0  9991",
    "TLE_LINE2": "2 65098  53.1582 217.7727 0001394  94.1749 265.9411 15.30200413 15315",
    "COMMENT": "Grouped by shell and plane from TLE"
  },
  {
    "OBJECT_NAME": "STARLINK-34815",
    "OBJECT_ID": "25167X",
    "EPOCH": "2025-11-11T04:00:24.152544",
    "MEAN_MOTION": 15.30207704,
    "ECCENTRICITY": 0.0001275,
    "INCLINATION": 53.1583,
    "RA_OF_ASC_NODE": 217.1725,
    "ARG_OF_PERICENTER": 93.808,
    "MEAN_ANOMALY": 266.3067,
    "EPHEMERIS_TYPE": 0,
    "CLASSIFICATION_TYPE": "U",
    "NORAD_CAT_ID": 65099,
    "ELEMENT_SET_NO": 999,
    "REV_AT_EPOCH": 1533,
    "BSTAR": 0.0011457000000000001,
    "MEAN_MOTION_DOT": 0.00033734,
    "MEAN_MOTION_DDOT": 0.0,
    "TLE_LINE1": "1 65099U 25167X   25315.16694621  .00033734  00000+0  11457-2 0  9990",
    "TLE_LINE2": "2 65099  53.1583 217.1725 0001275  93.8080 266.3067 15.30207704 15335",
    "COMMENT": "Grouped by shell and plane from TLE"
  },
  {
    "OBJECT_NAME": "STARLINK-34814",
    "OBJECT_ID": "25167Y",
    "EPOCH": "2025-11-11T02:20:16.324224",
    "MEAN_MOTION": 15.30185664,
    "ECCENTRICITY": 0.0001413,
    "INCLINATION": 53.1572,
    "RA_OF_ASC_NODE": 217.4494,
    "ARG_OF_PERICENTER": 88.007,
    "MEAN_ANOMALY": 272.1093,
    "EPHEMERIS_TYPE": 0,
    "CLASSIFICATION_TYPE": "U",
    "NORAD_CAT_ID": 65100,
    "ELEMENT_SET_NO": 999,
    "REV_AT_EPOCH": 1532,
    "BSTAR": 0.0010953,
    "MEAN_MOTION_DOT": 0.00032207,
    "MEAN_MOTION_DDOT": 0.0,
    "TLE_LINE1": "1 65100U 25167Y   25315.09741116  .00032207  00000+0  10953-2 0  9991",
    "TLE_LINE2": "2 65100  53.1572 217.4494 0001413  88.0070 272.1093 15.30185664 15324",
    "COMMENT": "Grouped by shell and plane from TLE"
  },
  {
    "OBJECT_NAME": "STARLINK-34285",
    "OBJECT_ID": "25167Z",
    "EPOCH": "2025-11-11T03:49:45.775776",
    "MEAN_MOTION": 15.30229556,
    "ECCENTRICITY": 0.0001291,
    "INCLINATION": 53.1566,
    "RA_OF_ASC_NODE": 217.1247,
    "ARG_OF_PERICENTER": 86.6471,
    "MEAN_ANOMALY": 273.4678,
    "EPHEMERIS_TYPE": 0,
    "CLASSIFICATION_TYPE": "U",
    "NORAD_CAT_ID": 65101,
    "ELEMENT_SET_NO": 999,
    "REV_AT_EPOCH": 1533,
    "BSTAR": 0.0013999000000000001,
    "MEAN_MOTION_DOT": 0.00041371,
    "MEAN_MOTION_DDOT": 0.0,
    "TLE_LINE1": "1 65101U 25167Z   25315.15955759  .00041371  00000+0  13999-2 0  9994",
    "TLE_LINE2": "2 65101  53.1566 217.1247 0001291  86.6471 273.4678 15.30229556 15337",
    "COMMENT": "Grouped by shell and plane from TLE"
  },
  {
    "OBJECT_NAME": "STARLINK-34857",
    "OBJECT_ID": "25167AA",
    "EPOCH": "2025-11-11T03:39:07.592544",
    "MEAN_MOTION": 15.30221652,
    "ECCENTRICITY": 0.0001353,
    "INCLINATION": 53.1565,
    "RA_OF_ASC_NODE": 217.0773,
    "ARG_OF_PERICENTER": 74.1952,
    "MEAN_ANOMALY": 285.9198,
    "EPHEMERIS_TYPE": 0,
    "CLASSIFICATION_TYPE": "U",
    "NORAD_CAT_ID": 65102,
    "ELEMENT_SET_NO": 999,
    "REV_AT_EPOCH": 1533,
    "BSTAR": 0.0020411,
    "MEAN_MOTION_DOT": 0.00060626,
    "MEAN_MOTION_DDOT": 0.0,
    "TLE_LINE1": "1 65102U 25167AA  25315.15217121  .00060626  00000+0  20411-2 0  9990",
    "TLE_LINE2": "2 65102  53.1565 217.0773 0001353  74.1952 285.9198 15.30221652 15339",
    "COMMENT": "Grouped by shell and plane from TLE"
  },
  {
    "OBJECT_NAME": "STARLINK-34887",
    "OBJECT_ID": "25167AB",
    "EPOCH": "2025-11-11T03:42:09.838656",
    "MEAN_MOTION": 15.30225786,
    "ECCENTRICITY": 0.0001248,
    "INCLINATION": 53.1575,
    "RA_OF_ASC_NODE": 217.0907,
    "ARG_OF_PERICENTER": 71.6525,
    "MEAN_ANOMALY": 288.4611,
    "EPHEMERIS_TYPE": 0,
    "CLASSIFICATION_TYPE": "U",
    "NORAD_CAT_ID": 65103,
    "ELEMENT_SET_NO": 999,
    "REV_AT_EPOCH": 1533,
    "BSTAR": 0.0013070000000000002,
    "MEAN_MOTION_DOT": 0.00038581,
    "MEAN_MOTION_DDOT": 0.0,
    "TLE_LINE1": "1 65103U 25167AB  25315.15428054  .00038581  00000+0  13070-2 0  9998",
    "TLE_LINE2": "2 65103  53.1575 217.0907 0001248  71.6525 288.4611 15.30225786 15331",
    "COMMENT": "Grouped by shell and plane from TLE"
  },
  {
    "OBJECT_NAME": "STARLINK-34481",
    "OBJECT_ID": "25167AC",
    "EPOCH": "2025-11-11T05:08:37.175424",
    "MEAN_MOTION": 15.30229381,
    "ECCENTRICITY": 0.0001393,
    "INCLINATION": 53.1568,
    "RA_OF_ASC_NODE": 216.7544,
    "ARG_OF_PERICENTER": 79.7644,
    "MEAN_ANOMALY": 280.3514,
    "EPHEMERIS_TYPE": 0,
    "CLASSIFICATION_TYPE": "U",
    "NORAD_CAT_ID": 65104,
    "ELEMENT_SET_NO": 999,
    "REV_AT_EPOCH": 1534,
    "BSTAR": 0.0013655000000000002,
    "MEAN_MOTION_DOT": 0.00040341,
    "MEAN_MOTION_DDOT": 0.0,
    "TLE_LINE1": "1 65104U 25167AC  25315.21431916  .00040341  00000+0  13655-2 0  9993",
    "TLE_LINE2": "2 65104  53.1568 216.7544 0001393  79.7644 280.3514 15.30229381 15348",
    "COMMENT": "Grouped by shell and plane from TLE"
  },
  {
    "OBJECT_NAME": "STARLINK-34545",
    "OBJECT_ID": "25167AD",
    "EPOCH": "2025-11-11T00:21:54.258912",
    "MEAN_MOTION": 15.30244144,
    "ECCENTRICITY": 0.0001173,
    "INCLINATION": 53.1574,
    "RA_OF_ASC_NODE": 217.6454,
    "ARG_OF_PERICENTER": 76.7105,
    "MEAN_ANOMALY": 283.4026,
    "EPHEMERIS_TYPE": 0,
    "CLASSIFICATION_TYPE": "U",
    "NORAD_CAT_ID": 65105,
    "ELEMENT_SET_NO": 999,
    "REV_AT_EPOCH": 1531,
    "BSTAR": 0.0017856,
    "MEAN_MOTION_DOT": 0.00052976,
    "MEAN_MOTION_DDOT": 0.0,
    "TLE_LINE1": "1 65105U 25167AD  25315.01521133  .00052976  00000+0  17856-2 0  9997",
    "TLE_LINE2": "2 65105  53.1574 217.6454 0001173  76.7105 283.4026 15.30244144 15314",
    "COMMENT": "Grouped by shell and plane from TLE"
  }
]